COSMOS 2251 DEB         
1 34722U 93036YQ  26073.72071005  .00000774  00000+0  38403-3 0  9997
2 34722  73.8716 172.0032 0161649  80.0661  69.8903 14.12195754875436
COSMOS 2251 DEB         
1 34726U 93036YU  26074.04396803  .00001959  00000+0  40920-3 0  9996
2 34726  74.0290 170.1794 0044928 295.7252  63.9279 14.59948959898491
COSMOS 2251 DEB         
1 34728U 93036YW  26071.98175216  .00004037  00000+0  64259-3 0  9992
2 34728  74.0152  76.2355 0043491 214.9398 144.8919 14.71733264901273
COSMOS 2251 DEB         
1 34729U 93036YX  26074.09283120  .00020022  00000+0  22842-2 0  9995
2 34729  74.0164 175.0404 0017513 277.8655 140.3137 14.85953770898280
COSMOS 2251 DEB         
1 34732U 93036ZA  26074.27928633  .00000397  00000+0  11473-3 0  9996
2 34732  74.0432 280.2466 0038532  46.2361  69.3222 14.47406826894829
COSMOS 2251 DEB         
1 34738U 93036ZG  26073.84844794  .00001009  00000+0  28401-3 0  9999
2 34738  74.0176 331.0787 0045286  95.9891  21.8540 14.46547054891904
COSMOS 2251 DEB         
1 34750U 93036ZU  26074.28040816  .00007120  00000+0  13904-2 0  9996
2 34750  74.1087  25.3839 0038646 307.3081 182.1003 14.62613298895837
COSMOS 2251 DEB         
1 34752U 93036ZW  26073.66471181  .00019439  00000+0  14080-2 0  9994
2 34752  74.0123 173.0844 0049703 278.7414  80.8146 15.02927410912294
COSMOS 2251 DEB         
1 34754U 93036ZY  26074.22134769  .00000629  00000+0  20438-3 0  9993
2 34754  74.0295  56.5081 0028859 155.3311 222.4546 14.40628312894656
COSMOS 2251 DEB         
1 34755U 93036ZZ  26073.94000895  .00000629  00000+0  60343-3 0  9993
2 34755  73.9240 141.8135 0404728 144.9811  32.8925 13.50794032837682
COSMOS 2251 DEB         
1 34756U 93036AAA 26073.67380574  .00001236  00000+0  98737-3 0  9992
2 34756  74.0031 313.1358 0344897 169.8764 190.9542 13.67512350846788
COSMOS 2251 DEB         
1 34758U 93036AAC 26073.60755293  .00001839  00000+0  15692-2 0  9998
2 34758  74.1068 151.5939 0387192 254.3925 101.4147 13.58360519841572
COSMOS 2251 DEB         
1 34760U 93036AAE 26073.46278292  .00000909  00000+0  42072-3 0  9994
2 34760  74.0627 138.6428 0096063 170.8949 210.9993 14.19832176879900
COSMOS 2251 DEB         
1 34761U 93036AAF 26074.02943911  .00002290  00000+0  75204-3 0  9993
2 34761  74.0291 192.6538 0037516 209.6098 150.2933 14.38480222889761
COSMOS 2251 DEB         
1 34784U 93036AAM 26072.61658966  .00002340  00000+0  47139-3 0  9996
2 34784  74.0069 150.3437 0052365 295.4605  64.1149 14.61276914898628
COSMOS 2251 DEB         
1 34790U 93036AAT 26074.06907197  .00001185  00000+0  49179-3 0  9999
2 34790  74.0513  77.4173 0097126 118.2527 300.1553 14.24996093878888
