[{"OBJECT_NAME":"COSMOS 2251 DEB","OBJECT_ID":"1993-036YQ","EPOCH":"2026-03-14T17:17:49.348320","MEAN_MOTION":14.12195754,"ECCENTRICITY":0.01616492,"INCLINATION":73.8716,"RA_OF_ASC_NODE":172.0032,"ARG_OF_PERICENTER":80.0661,"MEAN_ANOMALY":69.8903,"EPHEMERIS_TYPE":0,"CLASSIFICATION_TYPE":"U","NORAD_CAT_ID":34722,"ELEMENT_SET_NO":999,"REV_AT_EPOCH":87543,"BSTAR":0.00038402772,"MEAN_MOTION_DOT":7.74e-6,"MEAN_MOTION_DDOT":0},{"OBJECT_NAME":"COSMOS 2251 DEB","OBJECT_ID":"1993-036YU","EPOCH":"2026-03-15T01:03:18.837792","MEAN_MOTION":14.59948959,"ECCENTRICITY":0.00449286,"INCLINATION":74.029,"RA_OF_ASC_NODE":170.1794,"ARG_OF_PERICENTER":295.7252,"MEAN_ANOMALY":63.9279,"EPHEMERIS_TYPE":0,"CLASSIFICATION_TYPE":"U","NORAD_CAT_ID":34726,"ELEMENT_SET_NO":999,"REV_AT_EPOCH":89849,"BSTAR":0.00040920227,"MEAN_MOTION_DOT":1.959e-5,"MEAN_MOTION_DDOT":0},{"OBJECT_NAME":"COSMOS 2251 DEB","OBJECT_ID":"1993-036YW","EPOCH":"2026-03-12T23:33:43.386624","MEAN_MOTION":14.71733264,"ECCENTRICITY":0.00434913,"INCLINATION":74.0152,"RA_OF_ASC_NODE":76.2355,"ARG_OF_PERICENTER":214.9398,"MEAN_ANOMALY":144.8919,"EPHEMERIS_TYPE":0,"CLASSIFICATION_TYPE":"U","NORAD_CAT_ID":34728,"ELEMENT_SET_NO":999,"REV_AT_EPOCH":90127,"BSTAR":0.00064258674,"MEAN_MOTION_DOT":4.037e-5,"MEAN_MOTION_DDOT":0},{"OBJECT_NAME":"COSMOS 2251 DEB","OBJECT_ID":"1993-036YX","EPOCH":"2026-03-15T02:13:40.615680","MEAN_MOTION":14.8595377,"ECCENTRICITY":0.00175137,"INCLINATION":74.0164,"RA_OF_ASC_NODE":175.0404,"ARG_OF_PERICENTER":277.8655,"MEAN_ANOMALY":140.3137,"EPHEMERIS_TYPE":0,"CLASSIFICATION_TYPE":"U","NORAD_CAT_ID":34729,"ELEMENT_SET_NO":999,"REV_AT_EPOCH":89828,"BSTAR":0.0022842378,"MEAN_MOTION_DOT":0.00020022,"MEAN_MOTION_DDOT":0},{"OBJECT_NAME":"COSMOS 2251 DEB","OBJECT_ID":"1993-036ZA","EPOCH":"2026-03-15T06:42:10.338912","MEAN_MOTION":14.47406826,"ECCENTRICITY":0.00385323,"INCLINATION":74.0432,"RA_OF_ASC_NODE":280.2466,"ARG_OF_PERICENTER":46.2361,"MEAN_ANOMALY":69.3222,"EPHEMERIS_TYPE":0,"CLASSIFICATION_TYPE":"U","NORAD_CAT_ID":34732,"ELEMENT_SET_NO":999,"REV_AT_EPOCH":89482,"BSTAR":0.00011472779,"MEAN_MOTION_DOT":3.97e-6,"MEAN_MOTION_DDOT":0},{"OBJECT_NAME":"COSMOS 2251 DEB","OBJECT_ID":"1993-036ZG","EPOCH":"2026-03-14T20:21:45.902016","MEAN_MOTION":14.46547054,"ECCENTRICITY":0.00452868,"INCLINATION":74.0176,"RA_OF_ASC_NODE":331.0787,"ARG_OF_PERICENTER":95.9891,"MEAN_ANOMALY":21.854,"EPHEMERIS_TYPE":0,"CLASSIFICATION_TYPE":"U","NORAD_CAT_ID":34738,"ELEMENT_SET_NO":999,"REV_AT_EPOCH":89190,"BSTAR":0.00028400625,"MEAN_MOTION_DOT":1.009e-5,"MEAN_MOTION_DDOT":0},{"OBJECT_NAME":"COSMOS 2251 DEB","OBJECT_ID":"1993-036ZU","EPOCH":"2026-03-15T06:43:47.265024","MEAN_MOTION":14.62613298,"ECCENTRICITY":0.0038646,"INCLINATION":74.1087,"RA_OF_ASC_NODE":25.3839,"ARG_OF_PERICENTER":307.3081,"MEAN_ANOMALY":182.1003,"EPHEMERIS_TYPE":0,"CLASSIFICATION_TYPE":"U","NORAD_CAT_ID":34750,"ELEMENT_SET_NO":999,"REV_AT_EPOCH":89583,"BSTAR":0.0013904408,"MEAN_MOTION_DOT":7.12e-5,"MEAN_MOTION_DDOT":0},{"OBJECT_NAME":"COSMOS 2251 DEB","OBJECT_ID":"1993-036ZW","EPOCH":"2026-03-14T15:57:11.100384","MEAN_MOTION":15.0292741,"ECCENTRICITY":0.00497034,"INCLINATION":74.0123,"RA_OF_ASC_NODE":173.0844,"ARG_OF_PERICENTER":278.7414,"MEAN_ANOMALY":80.8146,"EPHEMERIS_TYPE":0,"CLASSIFICATION_TYPE":"U","NORAD_CAT_ID":34752,"ELEMENT_SET_NO":999,"REV_AT_EPOCH":91229,"BSTAR":0.0014079931,"MEAN_MOTION_DOT":0.00019439,"MEAN_MOTION_DDOT":0},{"OBJECT_NAME":"COSMOS 2251 DEB","OBJECT_ID":"1993-036ZY","EPOCH":"2026-03-15T05:18:44.440416","MEAN_MOTION":14.40628312,"ECCENTRICITY":0.00288599,"INCLINATION":74.0295,"RA_OF_ASC_NODE":56.5081,"ARG_OF_PERICENTER":155.3311,"MEAN_ANOMALY":222.4546,"EPHEMERIS_TYPE":0,"CLASSIFICATION_TYPE":"U","NORAD_CAT_ID":34754,"ELEMENT_SET_NO":999,"REV_AT_EPOCH":89465,"BSTAR":0.00020438272,"MEAN_MOTION_DOT":6.29e-6,"MEAN_MOTION_DDOT":0},{"OBJECT_NAME":"COSMOS 2251 DEB","OBJECT_ID":"1993-036ZZ","EPOCH":"2026-03-14T22:33:36.773280","MEAN_MOTION":13.50794032,"ECCENTRICITY":0.04047287,"INCLINATION":73.924,"RA_OF_ASC_NODE":141.8135,"ARG_OF_PERICENTER":144.9811,"MEAN_ANOMALY":32.8925,"EPHEMERIS_TYPE":0,"CLASSIFICATION_TYPE":"U","NORAD_CAT_ID":34755,"ELEMENT_SET_NO":999,"REV_AT_EPOCH":83768,"BSTAR":0.00060343037,"MEAN_MOTION_DOT":6.29e-6,"MEAN_MOTION_DDOT":0},{"OBJECT_NAME":"COSMOS 2251 DEB","OBJECT_ID":"1993-036AAA","EPOCH":"2026-03-14T16:10:16.815936","MEAN_MOTION":13.6751235,"ECCENTRICITY":0.03448976,"INCLINATION":74.0031,"RA_OF_ASC_NODE":313.1358,"ARG_OF_PERICENTER":169.8764,"MEAN_ANOMALY":190.9542,"EPHEMERIS_TYPE":0,"CLASSIFICATION_TYPE":"U","NORAD_CAT_ID":34756,"ELEMENT_SET_NO":999,"REV_AT_EPOCH":84678,"BSTAR":0.00098736855,"MEAN_MOTION_DOT":1.236e-5,"MEAN_MOTION_DDOT":0},{"OBJECT_NAME":"COSMOS 2251 DEB","OBJECT_ID":"1993-036AAC","EPOCH":"2026-03-14T14:34:52.573152","MEAN_MOTION":13.58360519,"ECCENTRICITY":0.03871921,"INCLINATION":74.1068,"RA_OF_ASC_NODE":151.5939,"ARG_OF_PERICENTER":254.3925,"MEAN_ANOMALY":101.4147,"EPHEMERIS_TYPE":0,"CLASSIFICATION_TYPE":"U","NORAD_CAT_ID":34758,"ELEMENT_SET_NO":999,"REV_AT_EPOCH":84157,"BSTAR":0.0015692362,"MEAN_MOTION_DOT":1.839e-5,"MEAN_MOTION_DDOT":0},{"OBJECT_NAME":"COSMOS 2251 DEB","OBJECT_ID":"1993-036AAE","EPOCH":"2026-03-14T11:06:24.444288","MEAN_MOTION":14.19832176,"ECCENTRICITY":0.00960634,"INCLINATION":74.0627,"RA_OF_ASC_NODE":138.6428,"ARG_OF_PERICENTER":170.8949,"MEAN_ANOMALY":210.9993,"EPHEMERIS_TYPE":0,"CLASSIFICATION_TYPE":"U","NORAD_CAT_ID":34760,"ELEMENT_SET_NO":999,"REV_AT_EPOCH":87990,"BSTAR":0.00042072469,"MEAN_MOTION_DOT":9.09e-6,"MEAN_MOTION_DDOT":0},{"OBJECT_NAME":"COSMOS 2251 DEB","OBJECT_ID":"1993-036AAF","EPOCH":"2026-03-15T00:42:23.539104","MEAN_MOTION":14.38480222,"ECCENTRICITY":0.00375165,"INCLINATION":74.0291,"RA_OF_ASC_NODE":192.6538,"ARG_OF_PERICENTER":209.6098,"MEAN_ANOMALY":150.2933,"EPHEMERIS_TYPE":0,"CLASSIFICATION_TYPE":"U","NORAD_CAT_ID":34761,"ELEMENT_SET_NO":999,"REV_AT_EPOCH":88976,"BSTAR":0.00075203993,"MEAN_MOTION_DOT":2.29e-5,"MEAN_MOTION_DDOT":0},{"OBJECT_NAME":"COSMOS 2251 DEB","OBJECT_ID":"1993-036AAM","EPOCH":"2026-03-13T14:47:53.346624","MEAN_MOTION":14.61276914,"ECCENTRICITY":0.00523652,"INCLINATION":74.0069,"RA_OF_ASC_NODE":150.3437,"ARG_OF_PERICENTER":295.4605,"MEAN_ANOMALY":64.1149,"EPHEMERIS_TYPE":0,"CLASSIFICATION_TYPE":"U","NORAD_CAT_ID":34784,"ELEMENT_SET_NO":999,"REV_AT_EPOCH":89862,"BSTAR":0.00047139085,"MEAN_MOTION_DOT":2.34e-5,"MEAN_MOTION_DDOT":0},{"OBJECT_NAME":"COSMOS 2251 DEB","OBJECT_ID":"1993-036AAT","EPOCH":"2026-03-15T01:39:27.818208","MEAN_MOTION":14.24996093,"ECCENTRICITY":0.00971261,"INCLINATION":74.0513,"RA_OF_ASC_NODE":77.4173,"ARG_OF_PERICENTER":118.2527,"MEAN_ANOMALY":300.1553,"EPHEMERIS_TYPE":0,"CLASSIFICATION_TYPE":"U","NORAD_CAT_ID":34790,"ELEMENT_SET_NO":999,"REV_AT_EPOCH":87888,"BSTAR":0.00049178771,"MEAN_MOTION_DOT":1.185e-5,"MEAN_MOTION_DDOT":0}]
